[{"OBJECT_NAME":"MONITOR-4 (RS57S)","OBJECT_ID":"2023-091S","EPOCH":"2026-03-09T23:02:36.101184","MEAN_MOTION":15.25833519,"ECCENTRICITY":0.00137053,"INCLINATION":97.5193,"RA_OF_ASC_NODE":131.7407,"ARG_OF_PERICENTER":91.587,"MEAN_ANOMALY":268.6938,"EPHEMERIS_TYPE":0,"CLASSIFICATION_TYPE":"U","NORAD_CAT_ID":57182,"ELEMENT_SET_NO":999,"REV_AT_EPOCH":14915,"BSTAR":0.00052093098,"MEAN_MOTION_DOT":0.000133,"MEAN_MOTION_DDOT":0},{"OBJECT_NAME":"STARLINK-30252","OBJECT_ID":"2023-119F","EPOCH":"2026-03-09T00:58:01.593408","MEAN_MOTION":15.26747761,"ECCENTRICITY":0.00012173,"INCLINATION":42.9989,"RA_OF_ASC_NODE":70.2401,"ARG_OF_PERICENTER":279.343,"MEAN_ANOMALY":80.7284,"EPHEMERIS_TYPE":0,"CLASSIFICATION_TYPE":"U","NORAD_CAT_ID":57607,"ELEMENT_SET_NO":999,"REV_AT_EPOCH":14316,"BSTAR":1.8088466e-5,"MEAN_MOTION_DOT":2.26e-6,"MEAN_MOTION_DDOT":0}]
